[{"OBJECT_NAME":"COSMOS 1408 DEB","OBJECT_ID":"1982-092RU","EPOCH":"2026-03-15T03:07:03.026496","MEAN_MOTION":15.46840822,"ECCENTRICITY":0.0013918,"INCLINATION":82.5652,"RA_OF_ASC_NODE":323.7367,"ARG_OF_PERICENTER":234.1418,"MEAN_ANOMALY":125.854,"EPHEMERIS_TYPE":0,"CLASSIFICATION_TYPE":"U","NORAD_CAT_ID":50032,"ELEMENT_SET_NO":999,"REV_AT_EPOCH":24031,"BSTAR":0.00011594503,"MEAN_MOTION_DOT":5.881e-5,"MEAN_MOTION_DDOT":0},{"OBJECT_NAME":"COSMOS 1408 DEB","OBJECT_ID":"1982-092SW","EPOCH":"2026-03-15T04:12:05.359392","MEAN_MOTION":15.71859781,"ECCENTRICITY":0.00151231,"INCLINATION":82.613,"RA_OF_ASC_NODE":332.0694,"ARG_OF_PERICENTER":107.5918,"MEAN_ANOMALY":252.6998,"EPHEMERIS_TYPE":0,"CLASSIFICATION_TYPE":"U","NORAD_CAT_ID":50058,"ELEMENT_SET_NO":999,"REV_AT_EPOCH":24252,"BSTAR":0.00037512392,"MEAN_MOTION_DOT":0.00049184,"MEAN_MOTION_DDOT":0},{"OBJECT_NAME":"COSMOS 1408 DEB","OBJECT_ID":"1982-092ADS","EPOCH":"2026-03-15T04:12:46.713024","MEAN_MOTION":15.35984855,"ECCENTRICITY":0.01194091,"INCLINATION":82.1941,"RA_OF_ASC_NODE":118.8835,"ARG_OF_PERICENTER":235.1293,"MEAN_ANOMALY":123.8679,"EPHEMERIS_TYPE":0,"CLASSIFICATION_TYPE":"U","NORAD_CAT_ID":50404,"ELEMENT_SET_NO":999,"REV_AT_EPOCH":22601,"BSTAR":0.0036265205,"MEAN_MOTION_DOT":0.00163927,"MEAN_MOTION_DDOT":0},{"OBJECT_NAME":"COSMOS 1408 DEB","OBJECT_ID":"1982-092ALR","EPOCH":"2026-03-15T04:50:48.943104","MEAN_MOTION":15.62867275,"ECCENTRICITY":0.00244863,"INCLINATION":82.5714,"RA_OF_ASC_NODE":337.4931,"ARG_OF_PERICENTER":163.1927,"MEAN_ANOMALY":197.0149,"EPHEMERIS_TYPE":0,"CLASSIFICATION_TYPE":"U","NORAD_CAT_ID":50621,"ELEMENT_SET_NO":999,"REV_AT_EPOCH":23691,"BSTAR":0.00041971255,"MEAN_MOTION_DOT":0.00038565,"MEAN_MOTION_DDOT":0}]
