COSMOS 1408 DEB         
1 50032U 82092RU  26074.12989614  .00005881  00000+0  11595-3 0  9995
2 50032  82.5652 323.7367 0013918 234.1418 125.8540 15.46840822240311
COSMOS 1408 DEB         
1 50058U 82092SW  26074.17506203  .00049184  00000+0  37512-3 0  9998
2 50058  82.6130 332.0694 0015123 107.5918 252.6998 15.71859781242528
COSMOS 1408 DEB         
1 50404U 82092ADS 26074.17554066  .00163927  00000+0  36265-2 0  9998
2 50404  82.1941 118.8835 0119409 235.1293 123.8679 15.35984855226013
COSMOS 1408 DEB         
1 50621U 82092ALR 26074.20195536  .00038565  00000+0  41971-3 0  9996
2 50621  82.5714 337.4931 0024486 163.1927 197.0149 15.62867275236917
